[{"OBJECT_NAME":"STARLINK-31296","OBJECT_ID":"2024-020D","EPOCH":"2026-03-09T21:13:17.648256","MEAN_MOTION":15.30115201,"ECCENTRICITY":0.00013739,"INCLINATION":53.16,"RA_OF_ASC_NODE":295.7482,"ARG_OF_PERICENTER":95.0661,"MEAN_ANOMALY":265.0496,"EPHEMERIS_TYPE":0,"CLASSIFICATION_TYPE":"U","NORAD_CAT_ID":58879,"ELEMENT_SET_NO":999,"REV_AT_EPOCH":11846,"BSTAR":0.0012468524,"MEAN_MOTION_DOT":0.00036654,"MEAN_MOTION_DDOT":0},{"OBJECT_NAME":"BANDWAGON-2 OBJECT D","OBJECT_ID":"2024-247D","EPOCH":"2026-03-09T12:32:33.670752","MEAN_MOTION":15.29076102,"ECCENTRICITY":0.00034883,"INCLINATION":44.9954,"RA_OF_ASC_NODE":115.671,"ARG_OF_PERICENTER":351.1453,"MEAN_ANOMALY":8.9368,"EPHEMERIS_TYPE":0,"CLASSIFICATION_TYPE":"U","NORAD_CAT_ID":62380,"ELEMENT_SET_NO":999,"REV_AT_EPOCH":6773,"BSTAR":0.00040119131,"MEAN_MOTION_DOT":0.00011259,"MEAN_MOTION_DDOT":0}]
